{
    "links": {
        "self": "http://www.neowsapp.com/rest/v1/neo/3699481?api_key=iIulBulltgU6a56xZRHN4H3l9WmuAYTsLGpBGhQ2"
    },
    "id": "3699481",
    "neo_reference_id": "3699481",
    "name": "(2014 WC364)",
    "designation": "2014 WC364",
    "nasa_jpl_url": "http://ssd.jpl.nasa.gov/sbdb.cgi?sstr=3699481",
    "absolute_magnitude_h": 24.8,
    "estimated_diameter": {
        "kilometers": {
            "estimated_diameter_min": 0.0291443905,
            "estimated_diameter_max": 0.0651688382
        },
        "meters": {
            "estimated_diameter_min": 29.1443904535,
            "estimated_diameter_max": 65.1688382168
        },
        "miles": {
            "estimated_diameter_min": 0.018109479,
            "estimated_diameter_max": 0.0404940262
        },
        "feet": {
            "estimated_diameter_min": 95.6180819754,
            "estimated_diameter_max": 213.8085311752
        }
    },
    "is_potentially_hazardous_asteroid": false,
    "close_approach_data": [
        {
            "close_approach_date": "2014-12-08",
            "close_approach_date_full": "2014-Dec-08 00:12",
            "epoch_date_close_approach": 1417997520000,
            "relative_velocity": {
                "kilometers_per_second": "11.0660133999",
                "kilometers_per_hour": "39837.6482395475",
                "miles_per_hour": "24753.5653741788"
            },
            "miss_distance": {
                "astronomical": "0.0306251064",
                "lunar": "11.9131663896",
                "kilometers": "4581450.685963368",
                "miles": "2846781.4492477584"
            },
            "orbiting_body": "Earth"
        }
    ],
    "orbital_data": {
        "orbit_id": "3",
        "orbit_determination_date": "2017-04-06 08:37:07",
        "first_observation_date": "2014-11-27",
        "last_observation_date": "2014-11-29",
        "data_arc_in_days": 2,
        "observations_used": 9,
        "orbit_uncertainty": "9",
        "minimum_orbit_intersection": ".00322592",
        "jupiter_tisserand_invariant": "4.743",
        "epoch_osculation": "2456989.5",
        "eccentricity": ".4291719290271252",
        "semi_major_axis": "1.36066148915822",
        "inclination": "6.128661309227904",
        "ascending_node_longitude": "251.3829091522229",
        "orbital_period": "579.7270520847442",
        "perihelion_distance": ".7767037731032657",
        "perihelion_argument": "254.7123204922095",
        "aphelion_distance": "1.944619205213173",
        "perihelion_time": "2457049.121318235843",
        "mean_anomaly": "322.976241167773",
        "mean_motion": ".6209818891587198",
        "equinox": "J2000",
        "orbit_class": {
            "orbit_class_type": "APO",
            "orbit_class_description": "Near-Earth asteroid orbits which cross the Earth’s orbit similar to that of 1862 Apollo",
            "orbit_class_range": "a (semi-major axis) > 1.0 AU; q (perihelion) < 1.017 AU"
        }
    },
    "is_sentry_object": false
}